COSMOS 2501 (702K)      
1 40315U 14075A   25133.96105352  .00000055  00000+0  00000+0 0  9993
2 40315  63.6140 204.1958 0021245 209.9434 150.0171  2.13101482 81342
GPS BIIF-9  (PRN 26)    
1 40534U 15013A   25134.20173051  .00000028  00000+0  00000+0 0  9998
2 40534  53.2434 220.6862 0098494  35.1202 325.5870  2.00575392 73825
GSAT0203 (GALILEO 7)    
1 40544U 15017A   25131.98961968 -.00000082  00000+0  00000+0 0  9998
2 40544  56.8937 352.5249 0003048 291.0843  68.9322  1.70475873 62368
GSAT0204 (GALILEO 8)    
1 40545U 15017B   25131.07135443 -.00000085  00000+0  00000+0 0  9993
2 40545  56.9005 352.5667 0001817 273.7988  86.2293  1.70475805 25396
IRNSS-1D                
1 40547U 15018A   25130.76041144 -.00000292  00000+0  00000+0 0  9995
2 40547  26.8281 246.9808 0028144 139.7127 227.6766  1.00280933 37210
BEIDOU-3S IGSO-1S (C31) 
1 40549U 15019A   25131.86538543 -.00000180  00000+0  00000+0 0  9990
2 40549  49.9571 300.2819 0038502 191.1793 144.1093  1.00286564 37049
GPS BIIF-10 (PRN 08)    
1 40730U 15033A   25134.36417865 -.00000034  00000+0  00000+0 0  9997
2 40730  54.3083 283.5007 0103979  24.9300 335.5401  2.00576927 71996
BEIDOU-3S M2S (C58)     
1 40748U 15037A   25132.21786552 -.00000074  00000+0  00000+0 0  9998
2 40748  55.2218 315.8140 0007913 259.5463 100.3607  1.86229335 66653
BEIDOU-3S M1S (C57)     
1 40749U 15037B   25133.01329904 -.00000070  00000+0  00000+0 0  9998
2 40749  55.2179 315.7791 0003863  25.1692 334.8447  1.86253949 66678
GSAT0205 (GALILEO 9)    
1 40889U 15045A   25130.83947644 -.00000014  00000+0  00000+0 0  9994
2 40889  55.0802 232.7184 0003700  39.9497 320.0909  1.70474167 60151
GSAT0206 (GALILEO 10)   
1 40890U 15045B   25132.81988688  .00000001  00000+0  00000+0 0  9994
2 40890  55.0769 232.6590 0001700 325.8929  34.1253  1.70474181 60218
BEIDOU-3S IGSO-2S (C56) 
1 40938U 15053A   25134.32692439 -.00000146  00000+0  00000+0 0  9991
2 40938  49.8418 263.5165 0058354 187.5924 355.0941  1.00275492 35352
GPS BIIF-11 (PRN 10)    
1 41019U 15062A   25133.91836783 -.00000069  00000+0  00000+0 0  9992
2 41019  56.6728  46.2346 0102896 228.5169 130.6116  2.00566927 69825
GSAT-15 (GAGAN/PRN 139) 
1 41028U 15065A   25134.46938043 -.00000242  00000+0  00000+0 0  9991
2 41028   0.0280 253.2363 0004268 159.5127  82.2082  1.00271575 34806
GSAT0209 (GALILEO 12)   
1 41174U 15079A   25132.40178117  .00000046  00000+0  00000+0 0  9999
2 41174  55.5911 112.2662 0005588 320.6197  39.3086  1.70474233 57944
GSAT0208 (GALILEO 11)   
1 41175U 15079B   25133.20834435  .00000046  00000+0  00000+0 0  9991
2 41175  55.5902 112.2416 0004991 321.1825  38.7474  1.70474148 58538
IRNSS-1E                
1 41241U 16003A   25130.23934087 -.00000293  00000+0  00000+0 0  9992
2 41241  32.3469  65.6027 0016941 185.2107 175.4213  1.00273690 34044
GPS BIIF-12 (PRN 32)    
1 41328U 16007A   25133.50325722  .00000020  00000+0  00000+0 0  9992
2 41328  55.2846 105.3237 0087858 242.7275 116.3456  2.00571470 67821
COSMOS 2514 (751)       
1 41330U 16008A   25134.41384443 -.00000039  00000+0  00000+0 0  9993
2 41330  65.2503 326.6633 0009295 199.8887 160.0947  2.13102745 72122
IRNSS-1F                
1 41384U 16015A   25134.54628060  .00000176  00000+0  00000+0 0  9991
2 41384   4.3589 107.0046 0018147 187.4037 167.2524  1.00275750 33662
BEIDOU-2 IGSO-6 (C13)   
1 41434U 16021A   25132.70808440 -.00000165  00000+0  00000+0 0  9991
2 41434  59.6616  42.0365 0054412 230.1661 306.3329  1.00293873 33461
IRNSS-1G                
1 41469U 16027A   25134.38532225 -.00000317  00000+0  00000+0 0  9995
2 41469   4.2203 107.9241 0006494 338.9418  53.8224  1.00273557 33189
GSAT0211 (GALILEO 14)   
1 41549U 16030A   25131.57243635 -.00000009  00000+0  00000+0 0  9998
2 41549  55.2279 232.7402 0002124 359.7610   0.2578  1.70474325 55808
GSAT0210 (GALILEO 13)   
1 41550U 16030B   25132.41681847 -.00000002  00000+0  00000+0 0  9998
2 41550  55.2272 232.7154 0002803 215.7665 144.2405  1.70474273 55835
BEIDOU-2 G7 (C03)       
1 41586U 16037A   25134.40134654 -.00000338  00000+0  00000+0 0  9996
2 41586   1.6826  68.4962 0010038 340.4810  78.4463  1.00273921  2892
EUTELSAT 117 WEST B (W*)
1 41589U 16038B   25134.07063216  .00000005  00000+0  00000+0 0  9998
2 41589   0.0098 122.0914 0000095 191.7465 186.6504  1.00271943 32666
GSAT0207 (GALILEO 15)   
1 41859U 16069A   25133.28177893  .00000045  00000+0  00000+0 0  9995
2 41859  55.2591 112.1631 0005872 309.3862  50.5273  1.70474117 52803
GSAT0212 (GALILEO 16)   
1 41860U 16069B   25133.13568168  .00000045  00000+0  00000+0 0  9990
2 41860  55.2567 112.1629 0004470 330.8477  29.0934  1.70474333 52837
GSAT0213 (GALILEO 17)   
1 41861U 16069C   25132.33054408  .00000045  00000+0  00000+0 0  9999
2 41861  55.2584 112.1926 0005817 294.5578  65.3509  1.70474672 52681
GSAT0214 (GALILEO 18)   
1 41862U 16069D   25133.06272708  .00000045  00000+0  00000+0 0  9996
2 41862  55.2574 112.1655 0004863 298.8368  61.0807  1.70474378 52827
SES-15 (WAAS/PRN 133)   
1 42709U 17026A   25134.49211325  .00000076  00000+0  00000+0 0  9991
2 42709   0.0379  42.4009 0000602   9.7768 228.2984  1.00270257  3447
QZS-2 (QZSS/PRN 194)    
1 42738U 17028A   25126.19505183 -.00000271  00000+0  00000+0 0  9999
2 42738  40.0600 249.0918 0738919 270.8307 271.6695  1.00245883 29045
QZS-3 (QZSS/PRN 199)    
1 42917U 17048A   25134.58308660 -.00000332  00000+0  00000+0 0  9991
2 42917   0.0554 185.2519 0003618 237.1029 147.1715  1.00270640 28266
COSMOS 2522 (752)       
1 42939U 17055A   25133.78360791  .00000054  00000+0  00000+0 0  9997
2 42939  64.0755 205.4827 0009466 237.9935 121.9951  2.13101898 59462
QZS-4 (QZSS/PRN 195)    
1 42965U 17062A   25134.36662084 -.00000316  00000+0  00000+0 0  9991
2 42965  40.3453 348.5738 0745789 271.0012 243.6096  1.00262139 27810
BEIDOU-3 M1 (C19)       
1 43001U 17069A   25134.17562091 -.00000028  00000+0  00000+0 0  9996
2 43001  56.3419  76.2643 0011769 313.2963  46.5730  1.86231499 51179
BEIDOU-3 M2 (C20)       
1 43002U 17069B   25134.11352188 -.00000029  00000+0  00000+0 0  9996
2 43002  56.3413  76.3019 0009877 335.2250  24.6945  1.86230963 51161
GSAT0215 (GALILEO 19)   
1 43055U 17079A   25133.55303620  .00000006  00000+0  00000+0 0  9993
2 43055  55.2048 232.5030 0001878 253.7443 106.2701  1.70474891 46176
GSAT0216 (GALILEO 20)   
1 43056U 17079B   25132.08471794 -.00000004  00000+0  00000+0 0  9998
2 43056  55.2064 232.5436 0002296 264.8137  95.1836  1.70474983 46169
GSAT0217 (GALILEO 21)   
1 43057U 17079C   25133.47850303  .00000005  00000+0  00000+0 0  9990
2 43057  55.2032 232.5033 0002076 293.8467  66.1660  1.70474925 46172
GSAT0218 (GALILEO 22)   
1 43058U 17079D   25134.28515381  .00000010  00000+0  00000+0 0  9991
2 43058  55.2030 232.4788 0003377 268.1043  91.8972  1.70474945 46215
BEIDOU-3 M7 (C27)       
1 43107U 18003A   25132.24864519 -.00000075  00000+0  00000+0 0  9990
2 43107  54.6805 316.2590 0004979  77.8959 282.1569  1.86232662 49883
BEIDOU-3 M8 (C28)       
1 43108U 18003B   25133.80263432 -.00000067  00000+0  00000+0 0  9992
2 43108  54.6720 316.1892 0002387 269.4034  90.5638  1.86231114 49922
BEIDOU-3 M4 (C22)       
1 43207U 18018A   25134.24380249 -.00000028  00000+0  00000+0 0  9990
2 43207  56.3008  76.3396 0007517 357.7443   2.2197  1.86231401 49311
BEIDOU-3 M3 (C21)       
1 43208U 18018B   25133.23641865 -.00000036  00000+0  00000+0 0  9992
2 43208  56.2996  76.3771 0009690 325.0468  34.8536  1.86231367 49299
BEIDOU-3 M9 (C29)       
1 43245U 18029A   25133.99155650 -.00000064  00000+0  00000+0 0  9991
2 43245  54.5529 313.8740 0000544  89.1201 270.8771  1.86232938 48466
BEIDOU-3 M10 (C30)      
1 43246U 18029B   25133.92358839 -.00000065  00000+0  00000+0 0  9990
2 43246  54.5500 313.9034 0004359  28.3640 331.6508  1.86229241 48448
IRNSS-1I                
1 43286U 18035A   25130.93655979  .00000099  00000+0  00000+0 0  9990
2 43286  29.0628  80.4658 0018952 187.2342 353.5956  1.00278726 26046
COSMOS 2527 (756)       
1 43508U 18053A   25134.21275539  .00000006  00000+0  00000+0 0  9990
2 43508  65.3605  87.2373 0008498 245.8770 114.0040  2.13102244 53770
BEIDOU-2 IGSO-7 (C16)   
1 43539U 18057A   25133.27493119 -.00000044  00000+0  00000+0 0  9992
2 43539  55.1600 166.5224 0088856 236.3167  40.5747  1.00267833 25118
GSAT0221 (GALILEO 25)   
1 43564U 18060A   25134.18737951 -.00000074  00000+0  00000+0 0  9993
2 43564  57.2741 352.5491 0003286 314.0382  45.9828  1.70475866 42364
GSAT0222 (GALILEO 26)   
1 43565U 18060B   25132.64664688 -.00000079  00000+0  00000+0 0  9994
2 43565  57.2776 352.5932 0001842 273.9260  86.1024  1.70475587 42384
GSAT0219 (GALILEO 23)   
1 43566U 18060C   25133.45463660 -.00000076  00000+0  00000+0 0  9999
2 43566  57.2772 352.5733 0002933 331.0631  28.9696  1.70475824 42372
GSAT0220 (GALILEO 24)   
1 43567U 18060D   25130.15593922 -.00000087  00000+0  00000+0 0  9991
2 43567  57.2773 352.6618 0003166 326.3692  33.6592  1.70475949 42297
BEIDOU-3 M5 (C23)       
1 43581U 18062A   25132.53810834  .00000061  00000+0  00000+0 0  9998
2 43581  54.1000 195.9262 0004550 279.9501  80.0895  1.86228881 46176
BEIDOU-3 M6 (C24)       
1 43582U 18062B   25132.93929057  .00000062  00000+0  00000+0 0  9992
2 43582  54.0997 195.9019 0004397  14.0791 346.0252  1.86229644 46180
BEIDOU-3 M12 (C26)      
1 43602U 18067A   25133.41174191  .00000063  00000+0  00000+0 0  9996
2 43602  54.1929 194.5972 0007211  27.0377 333.0936  1.86227960 45671
BEIDOU-3 M11 (C25)      
1 43603U 18067B   25133.00873314  .00000063  00000+0  00000+0 0  9995
2 43603  54.1901 194.5754 0003969  12.2493 347.8534  1.86227435 45697
BEIDOU-3 M13 (C32)      
1 43622U 18072A   25131.89362373 -.00000044  00000+0  00000+0 0  9995
2 43622  56.2716  75.9390 0008396 314.1815  45.7114  1.86231454 45182
BEIDOU-3 M14 (C33)      
1 43623U 18072B   25133.36996993 -.00000036  00000+0  00000+0 0  9992
2 43623  56.2746  75.8836 0006562 338.8570  21.0807  1.86231472 45203
